STARLINK-1913           
1 47179U 20088BK  22030.49843965  .00002028  00000-0  15502-3 0  9999
2 47179  53.0533 201.7406 0001890  87.5979 272.5226 15.06396257 65733
STARLINK-1927           
1 47181U 20088BM  22030.60439690  .00000836  00000-0  75035-4 0  9994
2 47181  53.0555 171.2745 0001633  76.9322 283.1849 15.06406766 66171
LUCAS (JDRS-1)          
1 47202U 20089A   22030.09910313 -.00000240  00000-0  00000-0 0  9994
2 47202   0.0416 104.8356 0002970 205.9557 304.9533  1.00271529  4385
FALCON EYE 2            
1 47226U 20090A   22030.44958683  .00000329  00000-0  44888-4 0  9996
2 47226  97.8641 107.1228 0001258  90.2436 269.8946 14.84901250 62982
GONETS-M 20             
1 47227U 20091A   22030.32640884  .00000017  00000-0  51350-4 0  9992
2 47227  82.5023 216.2136 0021257  70.7617 289.5757 12.42870361 52587
GONETS-M 21             
1 47228U 20091B   22030.30313330  .00000050  00000-0  28545-3 0  9990
2 47228  82.4946 215.9316 0015232  83.1383 277.1427 12.42886248 52578
GONETS-M 22             
1 47229U 20091C   22030.27542966  .00000041  00000-0  22235-3 0  9996
2 47229  82.5001 216.1013 0022163  64.6252 295.7117 12.42879848 52568
COSMOS 2548             
1 47230U 20091D   22030.76206968  .00000018  00000-0  54098-4 0  9998
2 47230  82.4976 215.7362 0015743  81.8008 278.4856 12.42883100 52630
GAOFEN 14               
1 47231U 20092A   22030.40336130  .00003047  00000-0  12256-3 0  9990
2 47231  97.3996 109.7851 0001094  24.3619 106.0818 15.25660288 64065
GECAM-A                 
1 47234U 20094A   22030.59942692  .00000670  00000-0  52587-4 0  9992
2 47234  28.9982 236.1267 0012490 268.4871  91.4299 14.90902589 62200
GECAM-B                 
1 47235U 20094B   22030.24026607  .00000676  00000-0  53082-4 0  9991
2 47235  28.9982 238.0620 0012972 264.1945  95.7174 14.90996234 62158
SXM-7                   
1 47240U 20096A   22030.23767726 -.00000027  00000-0  00000-0 0  9991
2 47240   0.0153  69.2544 0001640  98.5633 291.8525  1.00270727  4285
IPM 2 & BREEZE-M R/B    
1 47242U 20097A   22030.38157397 -.00000122  00000-0  00000-0 0  9993
2 47242   1.0431  98.3299 0086339 229.3165 129.2735  0.95298266  4030
STRIX-ALPHA             
1 47253U 20098A   22030.40525358  .00006698  00000-0  28551-3 0  9992
2 47253  97.3370 283.8010 0011863 302.3978 167.9104 15.23206927 62491
CMS-01                  
1 47256U 20099A   22030.52475726 -.00000171  00000-0  00000-0 0  9999
2 47256   0.1097 272.4250 0007018   2.9730 126.2350  1.00270455  4166
ONEWEB-0102             
1 47258U 20100A   22030.51707263  .00000336  00000-0  89891-3 0  9997
2 47258  87.8888 308.4624 0001444  85.7602 274.3691 13.12443608 55030
ONEWEB-0109             
1 47259U 20100B   22030.52861745  .00000361  00000-0  96891-3 0  9991
2 47259  87.9001 308.3897 0001656  85.6691 274.4627 13.12442447 54862
ONEWEB-0110             
1 47260U 20100C   22030.47547049 -.00000183  00000-0 -54401-3 0  9990
2 47260  87.8910 308.4265 0001444  92.8899 267.2395 13.12442266 55027
ONEWEB-0111             
1 47261U 20100D   22030.50551067  .00000003  00000-0 -28393-4 0  9992
2 47261  87.8911 308.4494 0001491  85.3421 274.7878 13.12441657 54866
ONEWEB-0114             
1 47262U 20100E   22030.46161230  .00000276  00000-0  73095-3 0  9996
2 47262  87.8973 308.3564 0001958  90.0881 270.0472 13.12440320 54813
ONEWEB-0117             
1 47263U 20100F   22030.53091959  .00000368  00000-0  98686-3 0  9990
2 47263  87.8996 308.3957 0001545  86.0313 274.0992 13.12444457 54830
ONEWEB-0118             
1 47264U 20100G   22030.48472584 -.00000349  00000-0 -10057-2 0  9998
2 47264  87.8896 308.4183 0002464  77.5995 282.5409 13.12443551 55027
ONEWEB-0119             
1 47265U 20100H   22030.51245450  .00000283  00000-0  75119-3 0  9999
2 47265  87.8886 308.4691 0001577  85.4558 274.6750 13.12443723 55008
ONEWEB-0120             
1 47266U 20100J   22030.46624067  .00000147  00000-0  37423-3 0  9994
2 47266  87.8959 308.4679 0001762  88.9489 271.1841 13.12443910 55026
ONEWEB-0121             
1 47267U 20100K   22030.52632159  .00000469  00000-0  12683-2 0  9990
2 47267  87.8965 308.5184 0001411  79.7296 280.3992 13.12444906 54946
ONEWEB-0122             
1 47268U 20100L   22030.51936960  .00000401  00000-0  10801-2 0  9993
2 47268  87.8968 308.3920 0001597  85.0002 275.1309 13.12445373 54859
ONEWEB-0123             
1 47269U 20100M   22030.51475422  .00000309  00000-0  82430-3 0  9990
2 47269  87.8901 308.4520 0001705  82.2140 277.9182 13.12442462 54997
ONEWEB-0124             
1 47270U 20100N   22030.50087568 -.00000550  00000-0 -15651-2 0  9991
2 47270  87.8871 308.3622 0001259  69.4414 290.6849 13.12444150 54877
ONEWEB-0125             
1 47271U 20100P   22030.48010397 -.00000285  00000-0 -82661-3 0  9996
2 47271  87.8947 308.5094 0001886  87.5949 272.5395 13.12441911 54931
ONEWEB-0126             
1 47272U 20100Q   22030.50435404 -.00000065  00000-0 -21721-3 0  9996
2 47272  87.8901 308.5003 0001641  90.6958 269.4359 13.12444320 55007
ONEWEB-0127             
1 47273U 20100R   22030.46853954  .00000033  00000-0  54973-4 0  9995
2 47273  87.8879 308.3849 0001712  80.1866 279.9456 13.12440051 55022
ONEWEB-0128             
1 47274U 20100S   22030.48932137 -.00000393  00000-0 -11278-2 0  9999
2 47274  87.8893 308.4127 0001297  90.2625 269.8652 13.12441845 55042
ONEWEB-0129             
1 47275U 20100T   22030.47084992 -.00000076  00000-0 -24535-3 0  9995
2 47275  87.8996 308.3967 0003110 103.3348 256.8128 13.12442406 54971
ONEWEB-0130             
1 47276U 20100U   22030.49625329 -.00000247  00000-0 -72306-3 0  9992
2 47276  87.8933 308.4566 0001401  81.9190 278.2097 13.12440517 54947
ONEWEB-0131             
1 47277U 20100V   22030.49396191 -.00000301  00000-0 -87283-3 0  9996
2 47277  87.8932 308.4045 0001421  76.5146 283.6141 13.12442068 54989
ONEWEB-0132             
1 47278U 20100W   22030.52399362  .00000449  00000-0  12113-2 0  9994
2 47278  87.8894 308.4770 0001824  87.9500 272.1838 13.12443273 54883
ONEWEB-0133             
1 47279U 20100X   22030.46393132  .00000226  00000-0  59184-3 0  9990
2 47279  87.8919 308.4020 0001661  83.1982 276.9336 13.12443438 55037
ONEWEB-0134             
1 47280U 20100Y   22030.50782931  .00000108  00000-0  26499-3 0  9998
2 47280  87.8886 308.3958 0001327  87.6265 272.5015 13.12443663 55017
ONEWEB-0135             
1 47281U 20100Z   22030.47777425 -.00000296  00000-0 -85860-3 0  9994
2 47281  87.8892 308.3943 0001651  87.8523 272.2794 13.12440215 55031
ONEWEB-0136             
1 47282U 20100AA  22030.49856863 -.00000223  00000-0 -65589-3 0  9997
2 47282  87.8982 308.4012 0001476 116.8747 243.2533 13.12444184 54965
ONEWEB-0137             
1 47283U 20100AB  22030.45931431  .00000326  00000-0  87054-3 0  9992
2 47283  87.8875 308.4541 0001911  83.9403 276.1943 13.12443025 54863
ONEWEB-0138             
1 47284U 20100AC  22030.51013270  .00000135  00000-0  34033-3 0  9999
2 47284  87.8879 308.4362 0001641  91.9080 268.2237 13.12443081 54959
ONEWEB-0139             
1 47285U 20100AD  22030.48239734 -.00000501  00000-0 -14274-2 0  9994
2 47285  87.8931 308.5212 0001421  91.8039 268.3252 13.12442294 55025
ONEWEB-0140             
1 47286U 20100AE  22030.50321006 -.00000090  00000-0 -28419-3 0  9992
2 47286  87.8910 308.4590 0001504  89.6985 270.4316 13.12445244 54996
ONEWEB-0141             
1 47287U 20100AF  22030.49511313 -.00000262  00000-0 -76324-3 0  9992
2 47287  87.8884 308.4342 0001545  84.2326 275.8978 13.12443753 54971
ONEWEB-0142             
1 47288U 20100AG  22030.51591552  .00000333  00000-0  89012-3 0  9994
2 47288  87.8898 308.5277 0001875  89.9739 270.1605 13.12443987 54975
ONEWEB-0143             
1 47289U 20100AH  22030.47316697 -.00000090  00000-0 -28641-3 0  9998
2 47289  87.8931 308.4348 0001593  81.7442 278.3868 13.12442310 54947
ONEWEB-0144             
1 47290U 20100AJ  22030.52167344  .00000422  00000-0  11369-2 0  9994
2 47290  87.8974 308.3726 0001430  85.7288 274.4004 13.12445482 54871
ONEWEB-0145             
1 47291U 20100AK  22030.49164138 -.00000286  00000-0 -83090-3 0  9990
2 47291  87.8907 308.4381 0001698  84.1735 275.9587 13.12443019 55060
ONEWEB-0146             
1 47292U 20100AL  22030.48701261 -.00000419  00000-0 -11994-2 0  9995
2 47292  87.8894 308.4568 0001414  41.4690 318.6545 13.12440523 54970
ONEWEB-0147             
1 47293U 20100AM  22030.45701706  .00000416  00000-0  11201-2 0  9993
2 47293  87.8910 308.4697 0001683 108.4190 251.7121 13.12444422 54867
YUANGUANG               
1 47296U 20102A   22030.51528719  .00004114  00000-0  19251-3 0  9999
2 47296  97.4322 129.5677 0006615 206.9991 283.4752 15.20285747 61399
HAISI 1                 
1 47297U 20102B   22030.53835914  .00001072  00000-0  52886-4 0  9992
2 47297  97.4310 129.7044 0005462 184.9810 230.6654 15.20047152 61392
XJY-7                   
1 47298U 20102C   22030.52452546  .00006147  00000-0  26056-3 0  9995
2 47298  97.3915 129.9389 0001702 159.2247  30.0241 15.23491200 61551
TIANQI-8                
1 47299U 20102D   22030.52238727  .00004001  00000-0  18238-3 0  9999
2 47299  97.4323 130.1589 0004894 166.1427 321.8943 15.21217391 61425
ET-SMART-RSS            
1 47300U 20102E   22030.54371707  .00006459  00000-0  27813-3 0  9998
2 47300  97.4335 130.8948 0005298 131.4978 284.4826 15.22931326 61473
YAOGAN 33               
1 47302U 20103A   22030.51721440  .00000156  00000-0  42932-4 0  9999
2 47302  98.2277 282.8918 0001781  84.8623 275.2775 14.59229146 58178
WEINA 2                 
1 47303U 20103B   22030.43229114  .00000353  00000-0  84632-4 0  9994
2 47303  98.2298 282.9220 0001033  88.1534 271.9780 14.59215130 58163
TURKSAT 5A              
1 47306U 21001A   22030.51437829  .00000148  00000-0  00000-0 0  9993
2 47306   0.0159  95.1150 0000320  22.5810 228.0665  1.00270840  3948
